[{"OBJECT_NAME":"HIBARI","OBJECT_ID":"2021-102F","EPOCH":"2026-03-09T16:55:51.090816","MEAN_MOTION":15.29554512,"ECCENTRICITY":0.00120742,"INCLINATION":97.3381,"RA_OF_ASC_NODE":115.826,"ARG_OF_PERICENTER":186.5211,"MEAN_ANOMALY":173.5875,"EPHEMERIS_TYPE":0,"CLASSIFICATION_TYPE":"U","NORAD_CAT_ID":49400,"ELEMENT_SET_NO":999,"REV_AT_EPOCH":23897,"BSTAR":0.00042758039,"MEAN_MOTION_DOT":0.00012206,"MEAN_MOTION_DDOT":0},{"OBJECT_NAME":"STARLINK-35606","OBJECT_ID":"2025-240AB","EPOCH":"2026-03-09T09:12:20.711520","MEAN_MOTION":15.30206725,"ECCENTRICITY":7.836e-5,"INCLINATION":53.1604,"RA_OF_ASC_NODE":64.0717,"ARG_OF_PERICENTER":99.4375,"MEAN_ANOMALY":260.6714,"EPHEMERIS_TYPE":0,"CLASSIFICATION_TYPE":"U","NORAD_CAT_ID":66171,"ELEMENT_SET_NO":999,"REV_AT_EPOCH":2194,"BSTAR":0.00081215723,"MEAN_MOTION_DOT":0.00023777,"MEAN_MOTION_DDOT":0}]
